[{"OBJECT_NAME":"STARLINK-5137","OBJECT_ID":"2022-125M","EPOCH":"2026-01-31T16:41:43.601856","MEAN_MOTION":15.0883555,"ECCENTRICITY":0.00017907,"INCLINATION":53.2203,"RA_OF_ASC_NODE":24.77,"ARG_OF_PERICENTER":87.158,"MEAN_ANOMALY":272.9617,"EPHEMERIS_TYPE":0,"CLASSIFICATION_TYPE":"U","NORAD_CAT_ID":53975,"ELEMENT_SET_NO":999,"REV_AT_EPOCH":18381,"BSTAR":-6.606674e-6,"MEAN_MOTION_DOT":-3.93e-6,"MEAN_MOTION_DDOT":0},{"OBJECT_NAME":"STARLINK-5134","OBJECT_ID":"2022-125N","EPOCH":"2026-01-31T22:36:11.782656","MEAN_MOTION":15.08840723,"ECCENTRICITY":0.00013961,"INCLINATION":53.2189,"RA_OF_ASC_NODE":9.2082,"ARG_OF_PERICENTER":94.0149,"MEAN_ANOMALY":266.1003,"EPHEMERIS_TYPE":0,"CLASSIFICATION_TYPE":"U","NORAD_CAT_ID":53976,"ELEMENT_SET_NO":999,"REV_AT_EPOCH":18405,"BSTAR":0.00012093421,"MEAN_MOTION_DOT":1.637e-5,"MEAN_MOTION_DDOT":0},{"OBJECT_NAME":"STARLINK-5094","OBJECT_ID":"2022-125P","EPOCH":"2026-01-31T06:48:19.852704","MEAN_MOTION":15.08817685,"ECCENTRICITY":0.0001276,"INCLINATION":53.2197,"RA_OF_ASC_NODE":27.1552,"ARG_OF_PERICENTER":89.9191,"MEAN_ANOMALY":270.1947,"EPHEMERIS_TYPE":0,"CLASSIFICATION_TYPE":"U","NORAD_CAT_ID":53977,"ELEMENT_SET_NO":999,"REV_AT_EPOCH":18374,"BSTAR":-0.00011258,"MEAN_MOTION_DOT":-2.078e-5,"MEAN_MOTION_DDOT":0},{"OBJECT_NAME":"STARLINK-5148","OBJECT_ID":"2022-125Q","EPOCH":"2026-01-31T09:32:32.829216","MEAN_MOTION":15.08838453,"ECCENTRICITY":0.00018248,"INCLINATION":53.2177,"RA_OF_ASC_NODE":26.4447,"ARG_OF_PERICENTER":93.0776,"MEAN_ANOMALY":267.0425,"EPHEMERIS_TYPE":0,"CLASSIFICATION_TYPE":"U","NORAD_CAT_ID":53978,"ELEMENT_SET_NO":999,"REV_AT_EPOCH":18376,"BSTAR":1.9195598e-5,"MEAN_MOTION_DOT":1.7e-7,"MEAN_MOTION_DDOT":0},{"OBJECT_NAME":"STARLINK-5123","OBJECT_ID":"2022-125R","EPOCH":"2026-02-01T00:01:37.661376","MEAN_MOTION":15.0883539,"ECCENTRICITY":0.00014748,"INCLINATION":53.2179,"RA_OF_ASC_NODE":23.8168,"ARG_OF_PERICENTER":95.408,"MEAN_ANOMALY":264.708,"EPHEMERIS_TYPE":0,"CLASSIFICATION_TYPE":"U","NORAD_CAT_ID":53979,"ELEMENT_SET_NO":999,"REV_AT_EPOCH":18385,"BSTAR":6.574462e-6,"MEAN_MOTION_DOT":-1.83e-6,"MEAN_MOTION_DDOT":0},{"OBJECT_NAME":"STARLINK-5133","OBJECT_ID":"2022-125S","EPOCH":"2026-01-31T09:06:00.810720","MEAN_MOTION":15.08834646,"ECCENTRICITY":0.00015244,"INCLINATION":53.2189,"RA_OF_ASC_NODE":26.3366,"ARG_OF_PERICENTER":75.9622,"MEAN_ANOMALY":284.154,"EPHEMERIS_TYPE":0,"CLASSIFICATION_TYPE":"U","NORAD_CAT_ID":53980,"ELEMENT_SET_NO":999,"REV_AT_EPOCH":18376,"BSTAR":-4.962799e-5,"MEAN_MOTION_DOT":-1.078e-5,"MEAN_MOTION_DDOT":0},{"OBJECT_NAME":"STARLINK-5149","OBJECT_ID":"2022-125T","EPOCH":"2026-01-31T15:26:54.714048","MEAN_MOTION":15.08834922,"ECCENTRICITY":0.00014324,"INCLINATION":53.2193,"RA_OF_ASC_NODE":10.1996,"ARG_OF_PERICENTER":94.3838,"MEAN_ANOMALY":265.7318,"EPHEMERIS_TYPE":0,"CLASSIFICATION_TYPE":"U","NORAD_CAT_ID":53981,"ELEMENT_SET_NO":999,"REV_AT_EPOCH":18401,"BSTAR":-2.301184e-6,"MEAN_MOTION_DOT":-3.25e-6,"MEAN_MOTION_DDOT":0},{"OBJECT_NAME":"STARLINK-5120","OBJECT_ID":"2022-125U","EPOCH":"2026-01-31T09:46:28.722432","MEAN_MOTION":15.08836482,"ECCENTRICITY":0.00016299,"INCLINATION":53.2207,"RA_OF_ASC_NODE":21.5246,"ARG_OF_PERICENTER":91.299,"MEAN_ANOMALY":268.8189,"EPHEMERIS_TYPE":0,"CLASSIFICATION_TYPE":"U","NORAD_CAT_ID":53982,"ELEMENT_SET_NO":999,"REV_AT_EPOCH":18382,"BSTAR":2.8154287e-5,"MEAN_MOTION_DOT":1.6e-6,"MEAN_MOTION_DDOT":0},{"OBJECT_NAME":"STARLINK-5103","OBJECT_ID":"2022-125V","EPOCH":"2026-01-31T22:58:38.782848","MEAN_MOTION":16.26946599,"ECCENTRICITY":0.00034422,"INCLINATION":53.2089,"RA_OF_ASC_NODE":345.688,"ARG_OF_PERICENTER":196.884,"MEAN_ANOMALY":163.209,"EPHEMERIS_TYPE":0,"CLASSIFICATION_TYPE":"U","NORAD_CAT_ID":53983,"ELEMENT_SET_NO":999,"REV_AT_EPOCH":18438,"BSTAR":0.00066575976,"MEAN_MOTION_DOT":0.02351707,"MEAN_MOTION_DDOT":1.1979597e-5},{"OBJECT_NAME":"STARLINK-5142","OBJECT_ID":"2022-125W","EPOCH":"2026-01-31T22:45:28.930464","MEAN_MOTION":15.08836127,"ECCENTRICITY":0.0001641,"INCLINATION":53.2197,"RA_OF_ASC_NODE":19.2129,"ARG_OF_PERICENTER":79.8438,"MEAN_ANOMALY":280.274,"EPHEMERIS_TYPE":0,"CLASSIFICATION_TYPE":"U","NORAD_CAT_ID":53984,"ELEMENT_SET_NO":999,"REV_AT_EPOCH":18391,"BSTAR":0.00010738233,"MEAN_MOTION_DOT":1.421e-5,"MEAN_MOTION_DDOT":0},{"OBJECT_NAME":"STARLINK-5147","OBJECT_ID":"2022-125X","EPOCH":"2026-01-31T22:56:05.083296","MEAN_MOTION":15.08841049,"ECCENTRICITY":0.00013668,"INCLINATION":53.2185,"RA_OF_ASC_NODE":19.2589,"ARG_OF_PERICENTER":85.8826,"MEAN_ANOMALY":274.2323,"EPHEMERIS_TYPE":0,"CLASSIFICATION_TYPE":"U","NORAD_CAT_ID":53985,"ELEMENT_SET_NO":999,"REV_AT_EPOCH":18391,"BSTAR":0.00014201877,"MEAN_MOTION_DOT":1.973e-5,"MEAN_MOTION_DDOT":0},{"OBJECT_NAME":"STARLINK-5119","OBJECT_ID":"2022-125Y","EPOCH":"2026-01-31T23:13:14.389824","MEAN_MOTION":15.08818653,"ECCENTRICITY":0.00013675,"INCLINATION":53.2192,"RA_OF_ASC_NODE":8.6546,"ARG_OF_PERICENTER":99.2917,"MEAN_ANOMALY":260.8229,"EPHEMERIS_TYPE":0,"CLASSIFICATION_TYPE":"U","NORAD_CAT_ID":53986,"ELEMENT_SET_NO":999,"REV_AT_EPOCH":18405,"BSTAR":-0.00010600698,"MEAN_MOTION_DOT":-1.974e-5,"MEAN_MOTION_DDOT":0},{"OBJECT_NAME":"STARLINK-5113","OBJECT_ID":"2022-125AA","EPOCH":"2026-01-31T08:21:41.980320","MEAN_MOTION":15.08833164,"ECCENTRICITY":0.00011306,"INCLINATION":53.2177,"RA_OF_ASC_NODE":21.8613,"ARG_OF_PERICENTER":78.9134,"MEAN_ANOMALY":281.1986,"EPHEMERIS_TYPE":0,"CLASSIFICATION_TYPE":"U","NORAD_CAT_ID":53988,"ELEMENT_SET_NO":999,"REV_AT_EPOCH":18381,"BSTAR":-0.00013248823,"MEAN_MOTION_DOT":-2.395e-5,"MEAN_MOTION_DDOT":0},{"OBJECT_NAME":"STARLINK-5118","OBJECT_ID":"2022-125AD","EPOCH":"2026-01-31T08:01:47.661024","MEAN_MOTION":15.08842999,"ECCENTRICITY":0.00014641,"INCLINATION":53.2189,"RA_OF_ASC_NODE":11.7481,"ARG_OF_PERICENTER":86.7955,"MEAN_ANOMALY":273.3205,"EPHEMERIS_TYPE":0,"CLASSIFICATION_TYPE":"U","NORAD_CAT_ID":53991,"ELEMENT_SET_NO":999,"REV_AT_EPOCH":18395,"BSTAR":6.9404103e-5,"MEAN_MOTION_DOT":8.17e-6,"MEAN_MOTION_DDOT":0},{"OBJECT_NAME":"STARLINK-5108","OBJECT_ID":"2022-125AE","EPOCH":"2026-01-31T08:05:47.480640","MEAN_MOTION":15.08837414,"ECCENTRICITY":0.00013492,"INCLINATION":53.2186,"RA_OF_ASC_NODE":21.7967,"ARG_OF_PERICENTER":94.652,"MEAN_ANOMALY":265.4626,"EPHEMERIS_TYPE":0,"CLASSIFICATION_TYPE":"U","NORAD_CAT_ID":53992,"ELEMENT_SET_NO":999,"REV_AT_EPOCH":18381,"BSTAR":0.00018096764,"MEAN_MOTION_DOT":2.593e-5,"MEAN_MOTION_DDOT":0},{"OBJECT_NAME":"STARLINK-5121","OBJECT_ID":"2022-125AF","EPOCH":"2026-01-31T09:07:20.565696","MEAN_MOTION":15.08837927,"ECCENTRICITY":0.00014401,"INCLINATION":53.2188,"RA_OF_ASC_NODE":16.3634,"ARG_OF_PERICENTER":95.8586,"MEAN_ANOMALY":264.257,"EPHEMERIS_TYPE":0,"CLASSIFICATION_TYPE":"U","NORAD_CAT_ID":53993,"ELEMENT_SET_NO":999,"REV_AT_EPOCH":18389,"BSTAR":0.0001231697,"MEAN_MOTION_DOT":1.673e-5,"MEAN_MOTION_DDOT":0}]
