STARLINK-5137           
1 53975U 22125M   26031.69564354 -.00000393  00000+0 -66067-5 0  9991
2 53975  53.2203  24.7700 0001790  87.1580 272.9617 15.08835550183817
STARLINK-5134           
1 53976U 22125N   26031.94180304  .00001637  00000+0  12093-3 0  9997
2 53976  53.2189   9.2082 0001396  94.0149 266.1003 15.08840723184051
STARLINK-5094           
1 53977U 22125P   26031.28356311 -.00002078  00000+0 -11258-3 0  9992
2 53977  53.2197  27.1552 0001276  89.9191 270.1947 15.08817685183747
STARLINK-5148           
1 53978U 22125Q   26031.39760219  .00000017  00000+0  19196-4 0  9990
2 53978  53.2177  26.4447 0001824  93.0776 267.0425 15.08838453183769
STARLINK-5123           
1 53979U 22125R   26032.00113034 -.00000183  00000+0  65745-5 0  9994
2 53979  53.2179  23.8168 0001474  95.4080 264.7080 15.08835390183856
STARLINK-5133           
1 53980U 22125S   26031.37917605 -.00001078  00000+0 -49628-4 0  9997
2 53980  53.2189  26.3366 0001524  75.9622 284.1540 15.08834646183768
STARLINK-5149           
1 53981U 22125T   26031.64368882 -.00000325  00000+0 -23012-5 0  9999
2 53981  53.2193  10.1996 0001432  94.3838 265.7318 15.08834922184010
STARLINK-5120           
1 53982U 22125U   26031.40727688  .00000160  00000+0  28154-4 0  9993
2 53982  53.2207  21.5246 0001629  91.2990 268.8189 15.08836482183825
STARLINK-5103           
1 53983U 22125V   26031.95739332  .02351707  11980-4  66576-3 0  9994
2 53983  53.2089 345.6880 0003442 196.8840 163.2090 16.26946599184382
STARLINK-5142           
1 53984U 22125W   26031.94825151  .00001421  00000+0  10738-3 0  9997
2 53984  53.2197  19.2129 0001641  79.8438 280.2740 15.08836127183919
STARLINK-5147           
1 53985U 22125X   26031.95561439  .00001973  00000+0  14202-3 0  9997
2 53985  53.2185  19.2589 0001366  85.8826 274.2323 15.08841049183918
STARLINK-5119           
1 53986U 22125Y   26031.96752766 -.00001974  00000+0 -10601-3 0  9996
2 53986  53.2192   8.6546 0001367  99.2917 260.8229 15.08818653184050
STARLINK-5113           
1 53988U 22125AA  26031.34840255 -.00002395  00000+0 -13249-3 0  9990
2 53988  53.2177  21.8613 0001130  78.9134 281.1986 15.08833164183813
STARLINK-5118           
1 53991U 22125AD  26031.33457941  .00000817  00000+0  69404-4 0  9999
2 53991  53.2189  11.7481 0001464  86.7955 273.3205 15.08842999183957
STARLINK-5108           
1 53992U 22125AE  26031.33735510  .00002593  00000+0  18097-3 0  9995
2 53992  53.2186  21.7967 0001349  94.6520 265.4626 15.08837414183813
STARLINK-5121           
1 53993U 22125AF  26031.38009914  .00001673  00000+0  12317-3 0  9990
2 53993  53.2188  16.3634 0001440  95.8586 264.2570 15.08837927183896
